NORAD_CAT_ID,OBJECT_NAME,OBJECT_TYPE,EPOCH,MEAN_MOTION,ECCENTRICITY,INCLINATION,RA_OF_ASC_NODE,ARG_OF_PERICENTER,MEAN_ANOMALY,BSTAR,MEAN_MOTION_DOT,MEAN_MOTION_DDOT,TLE_LINE0,TLE_LINE1,TLE_LINE2,SEMIMAJOR_AXIS,PERIOD,APOGEE,PERIGEE,DECAYED
52673.0,STARLINK-3976,PAYLOAD,2023-12-16 19:27:08,15.08840138,0.0001658,53.215,207.7691,84.9566,275.1615,0.00020763,3.018e-05,0.0,0 STARLINK-3976,1 52673U 22053T   23350.81051105  .00003018  00000-0  20763-3 0  9992,2 52673  53.2150 207.7691 0001658  84.9566 275.1615 15.08840138 87742,6917.88,95.438,540.892,538.598,0.0
52673.0,STARLINK-3976,PAYLOAD,2023-12-16 21:02:31,15.08841047,0.0001701,53.215,207.4697,82.1873,277.9312,0.00021427,3.124e-05,0.0,0 STARLINK-3976,1 52673U 22053T   23350.87675041  .00003124  00000-0  21427-3 0  9995,2 52673  53.2150 207.4697 0001701  82.1873 277.9312 15.08841047 88188,6917.877,95.437,540.919,538.565,0.0
52673.0,STARLINK-3976,PAYLOAD,2023-12-17 20:53:18,15.08845798,0.0001596,53.2146,203.006,83.9888,276.1286,0.00019975,2.893e-05,0.0,0 STARLINK-3976,1 52673U 22053T   23351.87034911  .00002893  00000-0  19975-3 0  9998,2 52673  53.2146 203.0060 0001596  83.9888 276.1286 15.08845798 88331,6917.863,95.437,540.832,538.624,0.0
52673.0,STARLINK-3976,PAYLOAD,2023-12-18 20:44:05,15.08845136,0.0001461,53.2144,198.549,77.4745,282.641,9.9859e-05,1.302e-05,0.0,0 STARLINK-3976,1 52673U 22053T   23352.86394754  .00001302  00000-0  99859-4 0  9996,2 52673  53.2144 198.5490 0001461  77.4745 282.6410 15.08845136 88488,6917.865,95.437,540.74,538.719,0.0
52673.0,STARLINK-3976,PAYLOAD,2023-12-19 18:59:29,15.08834865,0.0001453,53.2143,194.3847,97.6359,262.4798,-9.3769e-05,-1.78e-05,0.0,0 STARLINK-3976,1 52673U 22053T   23353.79131210 -.00001780  00000-0 -93769-4 0  9991,2 52673  53.2143 194.3847 0001453  97.6359 262.4798 15.08834865 88193,6917.896,95.438,540.766,538.756,0.0
52673.0,STARLINK-3976,PAYLOAD,2023-12-20 18:50:15,15.08869695,0.000125,53.2154,189.9224,108.5507,251.5621,-0.00039009,-6.496e-05,0.0,0 STARLINK-3976,1 52673U 22053T   23354.78490695 -.00006496  00000-0 -39009-3 0  9991,2 52673  53.2154 189.9224 0001250 108.5507 251.5621 15.08869695 88346,6917.79,95.436,540.519,538.79,0.0
52673.0,STARLINK-3976,PAYLOAD,2023-12-20 20:25:39,15.08858723,0.0001316,53.2152,189.6251,109.9295,250.1839,-0.00021565,-3.72e-05,0.0,0 STARLINK-3976,1 52673U 22053T   23354.85114789 -.00003720  00000-0 -21565-3 0  9991,2 52673  53.2152 189.6251 0001316 109.9295 250.1839 15.08858723 88787,6917.823,95.436,540.599,538.778,0.0
52673.0,STARLINK-3976,PAYLOAD,2023-12-21 20:16:26,15.08837567,0.0001358,53.2155,185.1655,98.1144,262.0002,0.00010485,1.381e-05,0.0,0 STARLINK-3976,1 52673U 22053T   23355.84475657  .00001381  00000-0  10485-3 0  9993,2 52673  53.2155 185.1655 0001358  98.1144 262.0002 15.08837567 88931,6917.888,95.438,540.692,538.813,0.0
52673.0,STARLINK-3976,PAYLOAD,2023-12-22 20:07:13,15.08846157,0.0001334,53.2155,180.7046,92.5927,267.5218,0.00012939,1.772e-05,0.0,0 STARLINK-3976,1 52673U 22053T   23356.83835207  .00001772  00000-0  12939-3 0  9994,2 52673  53.2155 180.7046 0001334  92.5927 267.5218 15.08846157 89088,6917.862,95.437,540.649,538.804,0.0
52673.0,STARLINK-3976,PAYLOAD,2023-12-23 12:01:05,15.08841735,0.0001318,53.2148,177.7337,87.2565,272.8578,9.2403e-05,1.183e-05,0.0,0 STARLINK-3976,1 52673U 22053T   23357.50075574  .00001183  00000-0  92403-4 0  9993,2 52673  53.2148 177.7337 0001318  87.2565 272.8578 15.08841735 88758,6917.875,95.437,540.652,538.828,0.0
52673.0,STARLINK-3976,PAYLOAD,2023-12-23 18:22:37,15.0884208,0.0001303,53.2152,176.543,88.0415,272.0726,8.1142e-05,1.004e-05,0.0,0 STARLINK-3976,1 52673U 22053T   23357.76571557  .00001004  00000-0  81142-4 0  9993,2 52673  53.2152 176.5430 0001303  88.0415 272.0726 15.08842080 89225,6917.874,95.437,540.64,538.838,0.0
52673.0,STARLINK-3976,PAYLOAD,2023-12-24 11:51:51,15.08846425,0.0001344,53.2152,173.2719,84.4676,275.647,8.0384e-05,9.92e-06,0.0,0 STARLINK-3976,1 52673U 22053T   23358.49435176  .00000992  00000-0  80384-4 0  9992,2 52673  53.2152 173.2719 0001344  84.4676 275.6470 15.08846425 89337,6917.861,95.437,540.656,538.796,0.0
52673.0,STARLINK-3976,PAYLOAD,2023-12-24 18:13:24,15.08848065,0.0001347,53.215,172.0826,84.0954,276.0192,8.5994e-05,1.081e-05,0.0,0 STARLINK-3976,1 52673U 22053T   23358.75930913  .00001081  00000-0  85994-4 0  9992,2 52673  53.2150 172.0826 0001347  84.0954 276.0192 15.08848065 88943,6917.856,95.437,540.653,538.789,0.0
52673.0,STARLINK-3976,PAYLOAD,2023-12-25 11:42:39,15.08841738,0.0001412,53.2149,168.8121,74.9542,285.1606,7.5828e-05,9.19e-06,0.0,0 STARLINK-3976,1 52673U 22053T   23359.48795250  .00000919  00000-0  75828-4 0  9990,2 52673  53.2149 168.8121 0001412  74.9542 285.1606 15.08841738 89050,6917.875,95.437,540.717,538.763,0.0
52673.0,STARLINK-3976,PAYLOAD,2023-12-25 18:04:11,15.08839743,0.0001252,53.215,167.6228,81.5963,278.5171,5.2903e-05,5.54e-06,0.0,0 STARLINK-3976,1 52673U 22053T   23359.75291276  .00000554  00000-0  52903-4 0  9993,2 52673  53.2150 167.6228 0001252  81.5963 278.5171 15.08839743 89528,6917.881,95.438,540.612,538.88,0.0
52673.0,STARLINK-3976,PAYLOAD,2023-12-26 11:33:26,15.08838208,0.0001231,53.2151,164.3508,89.1215,270.9918,-1.3926e-05,-5.09e-06,0.0,0 STARLINK-3976,1 52673U 22053T   23360.48155618 -.00000509  00000-0 -13926-4 0  9998,2 52673  53.2151 164.3508 0001231  89.1215 270.9918 15.08838208 89200,6917.886,95.438,540.602,538.899,0.0
52673.0,STARLINK-3976,PAYLOAD,2023-12-26 14:44:12,15.08836823,0.0001222,53.2145,163.7569,87.1752,272.938,-6.4339e-06,-3.9e-06,0.0,0 STARLINK-3976,1 52673U 22053T   23360.61403679 -.00000390  00000-0 -64339-5 0  9999,2 52673  53.2145 163.7569 0001222  87.1752 272.9380 15.08836823 89652,6917.89,95.438,540.6,538.91,0.0
52673.0,STARLINK-3976,PAYLOAD,2023-12-26 16:19:35,15.08837893,0.0001252,53.2151,163.4587,91.0014,269.1122,-1.125e-05,-4.67e-06,0.0,0 STARLINK-3976,1 52673U 22053T   23360.68027613 -.00000467  00000-0 -11250-4 0  9994,2 52673  53.2151 163.4587 0001252  91.0014 269.1122 15.08837893 89665,6917.887,95.438,540.618,538.886,0.0
52673.0,STARLINK-3976,PAYLOAD,2023-12-27 14:34:59,15.08841927,0.0001263,53.2157,159.2948,91.9599,268.1537,8.6842e-05,1.095e-05,0.0,0 STARLINK-3976,1 52673U 22053T   23361.60763203  .00001095  00000-0  86842-4 0  9994,2 52673  53.2157 159.2948 0001263  91.9599 268.1537 15.08841927 89802,6917.874,95.437,540.613,538.866,0.0
52673.0,STARLINK-3976,PAYLOAD,2023-12-27 17:45:45,15.08843884,0.0001279,53.2159,158.7,87.9651,272.1487,9.9261e-05,1.292e-05,0.0,0 STARLINK-3976,1 52673U 22053T   23361.74011058  .00001292  00000-0  99261-4 0  9991,2 52673  53.2159 158.7000 0001279  87.9651 272.1487 15.08843884 89395,6917.869,95.437,540.618,538.849,0.0
52673.0,STARLINK-3976,PAYLOAD,2023-12-28 09:39:37,15.08834476,0.0001371,53.2163,155.7283,79.5099,280.6048,7.261e-05,8.68e-06,0.0,0 STARLINK-3976,1 52673U 22053T   23362.40251887  .00000868  00000-0  72610-4 0  9998,2 52673  53.2163 155.7283 0001371  79.5099 280.6048 15.08834476 89491,6917.897,95.438,540.711,538.814,0.0
52673.0,STARLINK-3976,PAYLOAD,2023-12-28 14:25:47,15.08833629,0.0001326,53.2162,154.8346,81.5857,278.5285,5.1068e-05,5.25e-06,0.0,0 STARLINK-3976,1 52673U 22053T   23362.60124061  .00000525  00000-0  51068-4 0  9997,2 52673  53.2162 154.8346 0001326  81.5857 278.5285 15.08833629 89954,6917.9,95.438,540.682,538.848,0.0
52673.0,STARLINK-3976,PAYLOAD,2023-12-28 17:36:33,15.08835807,0.0001342,53.2164,154.2395,80.8895,279.2249,6.4277e-05,7.35e-06,0.0,0 STARLINK-3976,1 52673U 22053T   23362.73371933  .00000735  00000-0  64277-4 0  9992,2 52673  53.2164 154.2395 0001342  80.8895 279.2249 15.08835807 89976,6917.893,95.438,540.687,538.83,0.0
52673.0,STARLINK-3976,PAYLOAD,2023-12-29 14:16:34,15.08838321,0.0001281,53.2159,150.374,89.1122,271.0017,-6.7979e-06,-3.96e-06,0.0,0 STARLINK-3976,1 52673U 22053T   23363.59484119 -.00000396  00000-0 -67979-5 0  9996,2 52673  53.2159 150.3740 0001281  89.1122 271.0017 15.08838321 90102,6917.886,95.438,540.637,538.864,0.0
52673.0,STARLINK-3976,PAYLOAD,2023-12-29 17:27:20,15.08840339,0.0001375,53.216,149.7789,98.8545,261.2603,1.2245e-05,-9.3e-07,0.0,0 STARLINK-3976,1 52673U 22053T   23363.72731926 -.00000093  00000-0  12245-4 0  9990,2 52673  53.2160 149.7789 0001375  98.8545 261.2603 15.08840339 89695,6917.879,95.438,540.696,538.793,0.0
52673.0,STARLINK-3976,PAYLOAD,2023-12-30 14:07:21,15.0883906,0.0001266,53.2159,145.9138,82.2062,277.9074,7.6838e-05,9.35e-06,0.0,0 STARLINK-3976,1 52673U 22053T   23364.58843997  .00000935  00000-0  76838-4 0  9999,2 52673  53.2159 145.9138 0001266  82.2062 277.9074 15.08839060 90258,6917.883,95.438,540.624,538.872,0.0
52673.0,STARLINK-3976,PAYLOAD,2023-12-30 17:18:07,15.08838453,0.0001372,53.216,145.3196,74.0049,286.1094,0.0001479,2.067e-05,0.0,0 STARLINK-3976,1 52673U 22053T   23364.72091913  .00002067  00000-0  14790-3 0  9994,2 52673  53.2160 145.3196 0001372  74.0049 286.1094 15.08838453 90271,6917.885,95.438,540.699,538.801,0.0
52673.0,STARLINK-3976,PAYLOAD,2023-12-31 09:11:59,15.08836896,0.0001556,53.2161,142.3472,63.4079,296.7073,6.8221e-05,7.98e-06,0.0,0 STARLINK-3976,1 52673U 22053T   23365.38332377  .00000798  00000-0  68221-4 0  9997,2 52673  53.2161 142.3472 0001556  63.4079 296.7073 15.08836896 89940,6917.89,95.438,540.831,538.678,0.0
52673.0,STARLINK-3976,PAYLOAD,2023-12-31 15:33:31,15.0883768,0.0001271,53.2165,141.1571,73.5741,286.539,6.7843e-05,7.92e-06,0.0,0 STARLINK-3976,1 52673U 22053T   23365.64828272  .00000792  00000-0  67843-4 0  9993,2 52673  53.2165 141.1571 0001271  73.5741 286.5390 15.08837680 90418,6917.887,95.438,540.632,538.873,0.0
52673.0,STARLINK-3976,PAYLOAD,2024-01-01 12:13:32,15.08843183,0.0001329,53.2182,137.2907,96.7892,263.3251,1.5128e-05,-4.7e-07,0.0,0 STARLINK-3976,1 52673U 22053T   24001.50940018 -.00000047  00000-0  15128-4 0  9992,2 52673  53.2182 137.2907 0001329  96.7892 263.3251 15.08843183 90115,6917.871,95.437,540.655,538.816,0.0
